OBJECT_NAME,OBJECT_ID,EPOCH,MEAN_MOTION,ECCENTRICITY,INCLINATION,RA_OF_ASC_NODE,ARG_OF_PERICENTER,MEAN_ANOMALY,EPHEMERIS_TYPE,CLASSIFICATION_TYPE,NORAD_CAT_ID,ELEMENT_SET_NO,REV_AT_EPOCH,BSTAR,MEAN_MOTION_DOT,MEAN_MOTION_DDOT
STARLINK-34595,2025-144AB,2026-06-14T12:08:41.600256,15.30201781,.0001238,53.1593,91.4202,87.0612,273.0531,0,U,64749,999,5453,.7455E-3,.21787E-3,0
STARLINK-34531,2025-144AC,2026-06-14T11:44:22.585056,15.30195320,.0001119,53.1584,91.3206,78.0756,282.0370,0,U,64750,999,5453,.50388E-3,.14592E-3,0
STARLINK-33965,2025-147A,2026-06-14T05:41:41.061120,15.34384302,.00014519,53.1583,152.8849,90.0422,270.0747,0,U,64755,999,5359,.10724935E-2,.36016E-3,0
STARLINK-34371,2025-147B,2026-06-14T11:14:13.775136,15.31692288,.0001199,53.1565,152.8972,87.6124,272.5014,0,U,64756,999,5352,.62222E-3,.18988E-3,0
STARLINK-34401,2025-147C,2026-06-14T06:15:00.745056,15.34393832,.0001114,53.1563,153.0236,71.8609,288.2515,0,U,64757,999,5348,.81303E-3,.27187E-3,0
STARLINK-34593,2025-147D,2026-06-14T05:26:31.589664,15.34368752,.00016516,53.1580,152.8130,98.8900,261.2290,0,U,64758,999,5355,.4578409E-3,.15109E-3,0
STARLINK-34598,2025-147E,2026-06-14T06:48:20.159424,15.34397588,.0001106,53.1574,153.1623,104.0490,256.0636,0,U,64759,999,5350,.3857E-3,.12676E-3,0
STARLINK-34235,2025-147F,2026-06-14T05:17:34.351008,15.34388231,.0001234,53.1588,153.4861,98.3895,261.7248,0,U,64760,999,5358,.59303E-3,.19705E-3,0
STARLINK-34635,2025-147G,2026-06-14T06:36:13.119840,15.34393956,.0001152,53.1576,153.1158,85.0653,275.0481,0,U,64761,999,5355,.57055E-3,.18946E-3,0
STARLINK-34638,2025-147H,2026-06-14T05:44:43.031616,15.34392120,.0001105,53.1582,152.8971,61.5005,298.6109,0,U,64762,999,5355,.64648E-3,.21523E-3,0
STARLINK-34534,2025-147J,2026-06-14T06:21:04.258368,15.34400942,.0001243,53.1570,153.0466,83.2821,276.8322,0,U,64763,999,5355,.89404E-3,.29952E-3,0
STARLINK-34261,2025-147K,2026-06-14T05:35:37.481280,15.34381845,.0001135,53.1592,152.8538,73.7228,286.3899,0,U,64764,999,5359,.66364E-3,.22099E-3,0
STARLINK-34566,2025-147L,2026-06-14T05:59:51.906912,15.34396815,.0001314,53.1572,152.9560,87.9440,272.1713,0,U,64765,999,5355,.96075E-3,.3222E-3,0
STARLINK-34645,2025-147M,2026-06-14T06:27:35.214912,15.30206381,.0001143,53.1566,154.4901,74.4710,285.6417,0,U,64766,999,5353,.37247E-3,.1069E-3,0
STARLINK-34639,2025-147N,2026-06-14T06:08:57.075360,15.34399574,.0001055,53.1573,152.9939,97.3954,262.7169,0,U,64767,999,5350,.31628E-3,.10325E-3,0
STARLINK-34609,2025-147P,2026-06-14T05:39:05.431392,15.30199203,.00010268,53.1564,144.3426,72.7341,287.3772,0,U,64768,999,5367,.45838455E-3,.13241E-3,0
STARLINK-34246,2025-147Q,2026-06-14T05:50:48.170976,15.34390649,.0001051,53.1585,152.9219,81.8543,278.2579,0,U,64769,999,5355,.6578E-3,.21907E-3,0
STARLINK-34618,2025-147R,2026-06-14T05:23:30.604128,15.34393849,.00016425,53.1587,152.8007,86.3672,273.7519,0,U,64770,999,5348,.6092868E-3,.20261E-3,0
STARLINK-34541,2025-147S,2026-06-14T10:27:53.572608,15.35524865,.0005337,53.1561,151.9747,40.9127,319.2276,0,U,64771,999,5351,.12422E-2,.43388E-3,0
STARLINK-34652,2025-147T,2026-06-14T05:56:50.046144,15.34393288,.0001175,53.1572,152.9413,83.9095,276.2041,0,U,64772,999,5355,.56642E-3,.18805E-3,0
STARLINK-34612,2025-147U,2026-06-14T05:38:39.792192,15.34424880,.00013831,53.1593,152.8636,82.8921,277.2239,0,U,64773,999,5355,.70595566E-3,.23569E-3,0
STARLINK-34621,2025-147V,2026-06-14T06:18:28.447200,15.30194510,.0001127,53.1566,154.4494,81.3400,278.7728,0,U,64774,999,5346,.58372E-3,.16966E-3,0
STARLINK-34657,2025-147W,2026-06-14T06:11:58.943040,15.34395999,.0001088,53.1566,153.0039,67.1056,293.0061,0,U,64775,999,5355,.63912E-3,.21276E-3,0
STARLINK-34637,2025-147X,2026-06-14T04:56:22.720128,15.34413493,.00015963,53.1583,153.3882,86.9962,273.1223,0,U,64776,999,5347,.94147634E-3,.31581E-3,0
STARLINK-34547,2025-147Y,2026-06-14T05:32:35.897856,15.34395876,.00014798,53.1590,152.8366,85.9899,274.1272,0,U,64777,999,5349,.81239679E-3,.27168E-3,0
STARLINK-34537,2025-147Z,2026-06-14T04:28:29.215200,15.30201449,.00013712,53.1581,131.6527,86.4366,273.6792,0,U,64778,999,5387,.57883763E-3,.16824E-3,0
STARLINK-34585,2025-147AA,2026-06-14T06:27:07.744896,15.34396220,.0001257,53.1576,153.0688,80.4363,279.6782,0,U,64779,999,5350,.73732E-3,.24614E-3,0
STARLINK-34491,2025-147AB,2026-06-14T05:29:34.041408,15.34394085,.0001291,53.1583,152.8201,82.6005,277.5144,0,U,64780,999,5355,.69027E-3,.23013E-3,0
STARLINK-34582,2025-147AC,2026-06-14T06:54:16.574112,15.34391576,.0001402,53.1582,152.4773,72.0893,288.0263,0,U,64781,999,5349,.62402E-3,.2076E-3,0
STARLINK-34482,2025-147AD,2026-06-14T06:18:02.443392,15.34395508,.0001169,53.1570,153.0270,69.5603,290.5525,0,U,64782,999,5359,.73844E-3,.24652E-3,0
