STARLINK-34595          
1 64749U 25144AB  26165.50603704  .00021787  00000+0  74550-3 0  9999
2 64749  53.1593  91.4202 0001238  87.0612 273.0531 15.30201781 54530
STARLINK-34531          
1 64750U 25144AC  26165.48915029  .00014592  00000+0  50388-3 0  9993
2 64750  53.1584  91.3206 0001119  78.0756 282.0370 15.30195320 54534
STARLINK-33965          
1 64755U 25147A   26165.23728080  .00036016  00000+0  10725-2 0  9998
2 64755  53.1583 152.8849 0001451  90.0422 270.0747 15.34384302 53591
STARLINK-34371          
1 64756U 25147B   26165.46821499  .00018988  00000+0  62222-3 0  9990
2 64756  53.1565 152.8972 0001199  87.6124 272.5014 15.31692288 53528
STARLINK-34401          
1 64757U 25147C   26165.26042529  .00027187  00000+0  81303-3 0  9990
2 64757  53.1563 153.0236 0001114  71.8609 288.2515 15.34393832 53484
STARLINK-34593          
1 64758U 25147D   26165.22675451  .00015109  00000+0  45784-3 0  9997
2 64758  53.1580 152.8130 0001651  98.8900 261.2290 15.34368752 53555
STARLINK-34598          
1 64759U 25147E   26165.28356666  .00012676  00000+0  38570-3 0  9999
2 64759  53.1574 153.1623 0001106 104.0490 256.0636 15.34397588 53509
STARLINK-34235          
1 64760U 25147F   26165.22053647  .00019705  00000+0  59303-3 0  9995
2 64760  53.1588 153.4861 0001234  98.3895 261.7248 15.34388231 53584
STARLINK-34635          
1 64761U 25147G   26165.27515185  .00018946  00000+0  57055-3 0  9999
2 64761  53.1576 153.1158 0001152  85.0653 275.0481 15.34393956 53556
STARLINK-34638          
1 64762U 25147H   26165.23938694  .00021523  00000+0  64648-3 0  9991
2 64762  53.1582 152.8971 0001105  61.5005 298.6109 15.34392120 53551
STARLINK-34534          
1 64763U 25147J   26165.26463262  .00029952  00000+0  89404-3 0  9990
2 64763  53.1570 153.0466 0001243  83.2821 276.8322 15.34400942 53558
STARLINK-34261          
1 64764U 25147K   26165.23307270  .00022099  00000+0  66364-3 0  9999
2 64764  53.1592 152.8538 0001135  73.7228 286.3899 15.34381845 53594
STARLINK-34566          
1 64765U 25147L   26165.24990633  .00032220  00000+0  96075-3 0  9991
2 64765  53.1572 152.9560 0001314  87.9440 272.1713 15.34396815 53558
STARLINK-34645          
1 64766U 25147M   26165.26915758  .00010690  00000+0  37247-3 0  9992
2 64766  53.1566 154.4901 0001143  74.4710 285.6417 15.30206381 53531
STARLINK-34639          
1 64767U 25147N   26165.25621615  .00010325  00000+0  31628-3 0  9990
2 64767  53.1573 152.9939 0001055  97.3954 262.7169 15.34399574 53508
STARLINK-34609          
1 64768U 25147P   26165.23547953  .00013241  00000+0  45838-3 0  9999
2 64768  53.1564 144.3426 0001026  72.7341 287.3772 15.30199203 53674
STARLINK-34246          
1 64769U 25147Q   26165.24361309  .00021907  00000+0  65780-3 0  9996
2 64769  53.1585 152.9219 0001051  81.8543 278.2579 15.34390649 53558
STARLINK-34618          
1 64770U 25147R   26165.22465977  .00020261  00000+0  60929-3 0  9994
2 64770  53.1587 152.8007 0001642  86.3672 273.7519 15.34393849 53486
STARLINK-34541          
1 64771U 25147S   26165.43603672  .00043388  00000+0  12422-2 0  9993
2 64771  53.1561 151.9747 0005337  40.9127 319.2276 15.35524865 53511
STARLINK-34652          
1 64772U 25147T   26165.24780146  .00018805  00000+0  56642-3 0  9994
2 64772  53.1572 152.9413 0001175  83.9095 276.2041 15.34393288 53550
STARLINK-34612          
1 64773U 25147U   26165.23518278  .00023569  00000+0  70596-3 0  9996
2 64773  53.1593 152.8636 0001383  82.8921 277.2239 15.34424880 53550
STARLINK-34621          
1 64774U 25147V   26165.26282925  .00016966  00000+0  58372-3 0  9998
2 64774  53.1566 154.4494 0001127  81.3400 278.7728 15.30194510 53462
STARLINK-34657          
1 64775U 25147W   26165.25832110  .00021276  00000+0  63912-3 0  9991
2 64775  53.1566 153.0039 0001088  67.1056 293.0061 15.34395999 53556
STARLINK-34637          
1 64776U 25147X   26165.20581852  .00031581  00000+0  94148-3 0  9996
2 64776  53.1583 153.3882 0001596  86.9962 273.1223 15.34413493 53474
STARLINK-34547          
1 64777U 25147Y   26165.23097104  .00027168  00000+0  81240-3 0  9997
2 64777  53.1590 152.8366 0001479  85.9899 274.1272 15.34395876 53493
STARLINK-34537          
1 64778U 25147Z   26165.18644925  .00016824  00000+0  57884-3 0  9995
2 64778  53.1581 131.6527 0001371  86.4366 273.6792 15.30201449 53875
STARLINK-34585          
1 64779U 25147AA  26165.26883964  .00024614  00000+0  73732-3 0  9999
2 64779  53.1576 153.0688 0001257  80.4363 279.6782 15.34396220 53501
STARLINK-34491          
1 64780U 25147AB  26165.22886622  .00023013  00000+0  69027-3 0  9995
2 64780  53.1583 152.8201 0001291  82.6005 277.5144 15.34394085 53555
STARLINK-34582          
1 64781U 25147AC  26165.28769183  .00020760  00000+0  62402-3 0  9990
2 64781  53.1582 152.4773 0001402  72.0893 288.0263 15.34391576 53491
STARLINK-34482          
1 64782U 25147AD  26165.26252828  .00024652  00000+0  73844-3 0  9998
2 64782  53.1570 153.0270 0001169  69.5603 290.5525 15.34395508 53597
